FENGYUN 1C DEB          
1 30607U 99025AMN 17345.39428166  .00001667  00000-0  65804-3 0  9996
2 30607  98.9177  40.2341 0043926  23.8333 336.4869 14.29950535559437
